{
  "norad_id": 52999,
  "name": "STARLINK-4217",
  "history": [
    {
      "epoch": "2026-03-28T11:41:04.035264Z",
      "apogee_km": 540.8437483280359,
      "perigee_km": 538.671529411431,
      "latitude_deg": 1.6117066484208897e-05,
      "longitude_deg": 8.565099132323986,
      "height_km": 540.7158097326989,
      "semi_major_axis_km": 6917.894638869733,
      "eccentricity": 0.000157,
      "inclination_deg": 53.2207,
      "raan_deg": 9.7385,
      "arg_perigee_deg": 93.2941,
      "mean_anomaly_deg": 266.8231,
      "mean_motion_rev_day": 15.08835338
    },
    {
      "epoch": "2026-03-29T03:34:54.996960Z",
      "apogee_km": 540.7830404176102,
      "perigee_km": 538.6924586682981,
      "latitude_deg": -4.975796076192548e-05,
      "longitude_deg": 126.476322945331,
      "height_km": 540.7291422966263,
      "semi_major_axis_km": 6917.874749542953,
      "eccentricity": 0.0001511,
      "inclination_deg": 53.2203,
      "raan_deg": 6.765,
      "arg_perigee_deg": 95.246,
      "mean_anomaly_deg": 264.8704,
      "mean_motion_rev_day": 15.08841845
    },
    {
      "epoch": "2026-03-30T01:50:19.149792Z",
      "apogee_km": 540.7083688791508,
      "perigee_km": 538.7842288184092,
      "latitude_deg": -2.8972014108810684e-05,
      "longitude_deg": 147.54635155426953,
      "height_km": 540.5279158671477,
      "semi_major_axis_km": 6917.88329884878,
      "eccentricity": 0.00013907,
      "inclination_deg": 53.2192,
      "raan_deg": 2.5997,
      "arg_perigee_deg": 83.1793,
      "mean_anomaly_deg": 276.9357,
      "mean_motion_rev_day": 15.08839048
    },
    {
      "epoch": "2026-03-30T11:22:37.970976Z",
      "apogee_km": 540.8049519029164,
      "perigee_km": 538.6854511540123,
      "latitude_deg": 4.7352957081449605e-05,
      "longitude_deg": 2.2932523596732235,
      "height_km": 540.5814049285357,
      "semi_major_axis_km": 6917.882201528464,
      "eccentricity": 0.00015319,
      "inclination_deg": 53.2198,
      "raan_deg": 0.8167,
      "arg_perigee_deg": 86.7806,
      "mean_anomaly_deg": 273.3362,
      "mean_motion_rev_day": 15.08839407
    },
    {
      "epoch": "2026-03-30T17:44:10.819968Z",
      "apogee_km": 540.8962163544793,
      "perigee_km": 538.6213355075215,
      "latitude_deg": -2.953778527174627e-05,
      "longitude_deg": -94.5436352718144,
      "height_km": 540.6039874327095,
      "semi_major_axis_km": 6917.895775931001,
      "eccentricity": 0.00016442,
      "inclination_deg": 53.2192,
      "raan_deg": 359.6279,
      "arg_perigee_deg": 87.4658,
      "mean_anomaly_deg": 272.6522,
      "mean_motion_rev_day": 15.08834966
    },
    {
      "epoch": "2026-03-31T11:13:24.997152Z",
      "apogee_km": 540.6451118085588,
      "perigee_km": 538.8298615432559,
      "latitude_deg": 4.488685810530323e-05,
      "longitude_deg": -0.840227298886627,
      "height_km": 540.527824995202,
      "semi_major_axis_km": 6917.874486675907,
      "eccentricity": 0.0001312,
      "inclination_deg": 53.2185,
      "raan_deg": 356.3585,
      "arg_perigee_deg": 83.3212,
      "mean_anomaly_deg": 276.793,
      "mean_motion_rev_day": 15.08841931
    },
    {
      "epoch": "2026-04-01T03:07:15.304800Z",
      "apogee_km": 540.6150304559842,
      "perigee_km": 538.8026931971035,
      "latitude_deg": 2.2851903371706604e-05,
      "longitude_deg": 117.07126279866492,
      "height_km": 540.6828153843657,
      "semi_major_axis_km": 6917.845861826544,
      "eccentricity": 0.00013099,
      "inclination_deg": 53.2185,
      "raan_deg": 353.3825,
      "arg_perigee_deg": 94.9414,
      "mean_anomaly_deg": 265.1728,
      "mean_motion_rev_day": 15.08851296
    },
    {
      "epoch": "2026-04-02T02:58:03.770400Z",
      "apogee_km": 540.6554803755507,
      "perigee_km": 538.8629151127925,
      "latitude_deg": -5.037257447286022e-05,
      "longitude_deg": 113.93011640574386,
      "height_km": 540.6551710696275,
      "semi_major_axis_km": 6917.896197744171,
      "eccentricity": 0.00012956,
      "inclination_deg": 53.2198,
      "raan_deg": 348.9227,
      "arg_perigee_deg": 89.9947,
      "mean_anomaly_deg": 270.1193,
      "mean_motion_rev_day": 15.08834828
    },
    {
      "epoch": "2026-04-02T22:02:40.785504Z",
      "apogee_km": 540.6471609205537,
      "perigee_km": 538.8043806356745,
      "latitude_deg": -1.5238308891280503e-05,
      "longitude_deg": -176.57634896040568,
      "height_km": 540.7556641292986,
      "semi_major_axis_km": 6917.862770778114,
      "eccentricity": 0.00013319,
      "inclination_deg": 53.2188,
      "raan_deg": 345.3539,
      "arg_perigee_deg": 98.3609,
      "mean_anomaly_deg": 261.7534,
      "mean_motion_rev_day": 15.08845764
    },
    {
      "epoch": "2026-04-03T17:07:21.726624Z",
      "apogee_km": 541.0984338197195,
      "perigee_km": 538.5747570521044,
      "latitude_deg": -7.312441673216315e-06,
      "longitude_deg": -107.0972382936839,
      "height_km": 540.7046649985845,
      "semi_major_axis_km": 6917.973595435912,
      "eccentricity": 0.0001824,
      "inclination_deg": 53.2184,
      "raan_deg": 341.7871,
      "arg_perigee_deg": 88.7705,
      "mean_anomaly_deg": 271.3496,
      "mean_motion_rev_day": 15.08809507
    },
    {
      "epoch": "2026-04-03T21:53:30.259392Z",
      "apogee_km": 540.7483323814185,
      "perigee_km": 538.8546159035077,
      "latitude_deg": 4.057903299549215e-05,
      "longitude_deg": -179.72361328707618,
      "height_km": 540.9470004913925,
      "semi_major_axis_km": 6917.938474142463,
      "eccentricity": 0.00013687,
      "inclination_deg": 53.2187,
      "raan_deg": 340.8921,
      "arg_perigee_deg": 105.2871,
      "mean_anomaly_deg": 254.8273,
      "mean_motion_rev_day": 15.08820997
    },
    {
      "epoch": "2026-04-05T08:51:57.704832Z",
      "apogee_km": 540.5707101993776,
      "perigee_km": 538.841664473136,
      "latitude_deg": 5.834400307858821e-06,
      "longitude_deg": 7.684760193624864,
      "height_km": 540.5369409069075,
      "semi_major_axis_km": 6917.843187336257,
      "eccentricity": 0.00012497,
      "inclination_deg": 53.2182,
      "raan_deg": 334.3512,
      "arg_perigee_deg": 85.6748,
      "mean_anomaly_deg": 274.4387,
      "mean_motion_rev_day": 15.08852171
    },
    {
      "epoch": "2026-04-05T23:10:26.800608Z",
      "apogee_km": 540.6404876999159,
      "perigee_km": 538.8365824753855,
      "latitude_deg": 9.591413220994133e-06,
      "longitude_deg": 149.79991746472126,
      "height_km": 540.5014460357506,
      "semi_major_axis_km": 6917.87553508765,
      "eccentricity": 0.00013038,
      "inclination_deg": 53.2183,
      "raan_deg": 331.6752,
      "arg_perigee_deg": 81.521,
      "mean_anomaly_deg": 278.593,
      "mean_motion_rev_day": 15.08841588
    },
    {
      "epoch": "2026-04-07T08:33:31.968000Z",
      "apogee_km": 540.739462871772,
      "perigee_km": 538.6915018228983,
      "latitude_deg": 4.2305196121250805e-06,
      "longitude_deg": 1.4137153576024304,
      "height_km": 540.5121368573923,
      "semi_major_axis_km": 6917.852482347335,
      "eccentricity": 0.00014802,
      "inclination_deg": 53.2185,
      "raan_deg": 325.4316,
      "arg_perigee_deg": 84.451,
      "mean_anomaly_deg": 275.6651,
      "mean_motion_rev_day": 15.0884913
    },
    {
      "epoch": "2026-04-07T21:16:36.935040Z",
      "apogee_km": 540.7575233380621,
      "perigee_km": 538.6904664727854,
      "latitude_deg": 4.306611103155327e-05,
      "longitude_deg": 167.74203507198536,
      "height_km": 540.5166258997206,
      "semi_major_axis_km": 6917.8609949054235,
      "eccentricity": 0.0001494,
      "inclination_deg": 53.2182,
      "raan_deg": 323.0529,
      "arg_perigee_deg": 84.2815,
      "mean_anomaly_deg": 275.8348,
      "mean_motion_rev_day": 15.08846345
    },
    {
      "epoch": "2026-04-08T08:24:18.958752Z",
      "apogee_km": 540.7289725035735,
      "perigee_km": 538.7420211650324,
      "latitude_deg": -7.16538221027195e-06,
      "longitude_deg": -1.7221271700660736,
      "height_km": 540.5464881095709,
      "semi_major_axis_km": 6917.872496834302,
      "eccentricity": 0.00014361,
      "inclination_deg": 53.2184,
      "raan_deg": 320.9709,
      "arg_perigee_deg": 85.1077,
      "mean_anomaly_deg": 275.0079,
      "mean_motion_rev_day": 15.08842582
    },
    {
      "epoch": "2026-04-09T20:58:11.015904Z",
      "apogee_km": 540.7063343583586,
      "perigee_km": 538.77901308126,
      "latitude_deg": 2.0151760151450954e-05,
      "longitude_deg": 161.46903476549048,
      "height_km": 540.6559998163511,
      "semi_major_axis_km": 6917.879673719809,
      "eccentricity": 0.0001393,
      "inclination_deg": 53.2185,
      "raan_deg": 314.1306,
      "arg_perigee_deg": 91.0436,
      "mean_anomaly_deg": 269.0716,
      "mean_motion_rev_day": 15.08840234
    }
  ]
}